ORBCOMM FM37 [-]        
1 33064U 08031E   23302.96832872  .00003107  00000+0  48335-3 0  9999
2 33064  48.4406 287.5474 0006294 341.5164  47.5240 14.75311487825891
ORBCOMM FM40 [-]        
1 33065U 08031F   23302.67475795  .00003230  00000+0  48908-3 0  9998
2 33065  48.4430 279.9998 0007631 348.9853 181.3487 14.76388986825863
VESSELSAT 1 [-]         
1 37840U 11058C   23302.74744421  .00000453  00000+0  10297-3 0  9993
2 37840  19.9612 102.0961 0013783 107.1356 253.0559 14.11076556621954
ORBCOMM FM109 [+]       
1 40086U 14040A   23302.75892576  .00001219  00000+0  31172-3 0  9995
2 40086  47.0044 308.1873 0000926  80.8022 279.2968 14.56031022494088
ORBCOMM FM107 [+]       
1 40087U 14040B   23302.72452031  .00001463  00000+0  36663-3 0  9992
2 40087  47.0062 309.2845 0001155   6.0814 354.0084 14.56035276494158
ORBCOMM FM106 [-]       
1 40088U 14040C   23302.91613535  .00001667  00000+0  33255-3 0  9992
2 40088  47.0604 175.6134 0018229 183.9537 176.1211 14.66164489495880
ORBCOMM FM111 [-]       
1 40089U 14040D   23302.87636123  .00004226  00000+0  57064-3 0  9994
2 40089  47.0033  99.1833 0034254 230.2114 129.5762 14.80241431501718
ORBCOMM FM104 [-]       
1 40090U 14040E   23302.77608964  .00001084  00000+0  29008-3 0  9993
2 40090  47.0068 335.8343 0017241 359.7052   0.3819 14.54581990493738
